OBJECT_NAME,OBJECT_ID,EPOCH,MEAN_MOTION,ECCENTRICITY,INCLINATION,RA_OF_ASC_NODE,ARG_OF_PERICENTER,MEAN_ANOMALY,EPHEMERIS_TYPE,CLASSIFICATION_TYPE,NORAD_CAT_ID,ELEMENT_SET_NO,REV_AT_EPOCH,BSTAR,MEAN_MOTION_DOT,MEAN_MOTION_DDOT
GALAXY 16 (G-16),2006-023A,2026-06-04T01:06:53.001792,1.00273894,.0003172,0.0274,206.5568,236.7234,86.9435,0,U,29236,999,7284,0,-.115E-5,0
EUTELSAT 33F,2006-032A,2026-06-04T03:27:12.489120,1.00273129,.0003675,1.6277,82.3887,345.9163,269.1817,0,U,29270,999,4717,0,.167E-5,0
JCSAT-3A,2006-033A,2026-06-04T00:28:52.122144,1.00274317,.0002306,0.0224,294.8408,143.5325,309.3146,0,U,29272,999,4760,0,-.332E-5,0
KOREASAT 5 (MUGUNGWHA 5),2006-034A,2026-06-04T00:20:38.664096,1.00269861,.0001746,1.7511,83.1445,30.2848,257.2441,0,U,29349,999,4118,0,-.346E-5,0
DIRECTV 9S,2006-043A,2026-06-04T04:30:38.689056,1.00272021,.0005207,2.3871,81.0569,3.2664,134.7901,0,U,29494,999,5125,0,-.102E-5,0
OPTUS D1,2006-043B,2026-06-03T21:10:24.603744,1.00272886,.0003871,3.0006,79.8181,348.9604,293.1559,0,U,29495,999,7198,0,-.172E-5,0
BADR-4,2006-051A,2026-06-02T21:00:38.852352,1.00437401,.0007686,1.9664,81.2933,158.1112,354.3784,0,U,29526,999,5112,0,.166E-5,0
WILDBLUE-1,2006-054A,2026-06-04T02:46:02.219808,1.00271661,.0001781,2.7692,80.6447,3.2545,98.9691,0,U,29643,999,5366,0,-.38E-6,0
SKYNET 5A,2007-007B,2026-06-04T04:49:38.495136,1.00269160,.0004058,5.2689,73.8958,7.4291,338.9369,0,U,30794,999,7056,0,-.26E-5,0
ANIK F3,2007-009A,2026-06-04T02:43:54.924096,1.00270842,.0002859,1.1634,84.0033,348.0179,102.8019,0,U,31102,999,4643,0,.11E-6,0
ASTRA 1L,2007-016A,2026-06-04T03:10:44.067072,1.00271527,.0005486,1.2879,81.6838,1.2540,192.8433,0,U,31306,999,4485,0,-.172E-5,0
GALAXY 17 (G-17),2007-016B,2026-06-04T02:53:32.495136,1.00270780,.0005002,2.9392,80.0641,12.4020,118.4898,0,U,31307,999,6967,0,-.195E-5,0
INTELSAT 11 (IS-11),2007-044B,2026-06-04T02:26:56.552352,0.99053422,.000161,3.5313,78.8269,73.4592,320.2860,0,U,32253,999,6832,0,-.125E-5,0
WGS F1 (USA 195),2007-046A,2026-06-04T03:05:33.177408,1.00271346,.0000557,0.0515,94.1457,344.4222,177.9178,0,U,32258,999,5220,0,-.255E-5,0
SKYNET 5B,2007-056B,2026-06-04T02:55:38.657280,1.00273754,.000375,5.2205,73.6564,355.4872,252.4278,0,U,32294,999,6806,0,.151E-5,0
ASTRA 4A,2007-057A,2026-06-04T03:19:05.765088,1.00272546,.0002596,0.0163,15.5610,62.1739,229.4330,0,U,32299,999,5151,0,.45E-6,0
HORIZONS-2,2007-063B,2026-06-04T04:14:26.556000,1.00273999,.0004229,2.5685,80.7829,351.2890,170.3820,0,U,32388,999,6768,0,-.242E-5,0
THURAYA-3,2008-001A,2026-06-04T03:42:55.979712,1.00010320,.0000859,5.9673,35.7798,145.6628,215.2674,0,U,32404,999,6735,0,-.155E-5,0
THOR 5,2008-006A,2026-06-04T03:17:28.420800,1.00270038,.0002811,0.0122,327.6536,117.4751,216.0714,0,U,32487,999,6718,0,0,0
AMC-14,2008-011A,2026-05-27T17:37:22.569600,1.00350219,.00499765,23.9628,20.7255,92.2727,95.7206,0,U,32708,999,6796,0,-.2E-7,0
DIRECTV 11,2008-013A,2026-06-03T23:24:10.037952,1.00271261,.0000515,0.0170,148.4619,243.0214,112.8090,0,U,32729,999,4546,0,-.114E-5,0
ICO G1,2008-016A,2026-06-04T04:30:38.689056,1.00271240,.0002237,5.5331,36.1851,24.5876,166.6572,0,U,32763,999,6641,0,-.162E-5,0
VINASAT-1,2008-018A,2026-06-04T04:14:38.785056,1.00268694,.0001454,0.0172,307.5188,139.9857,0.7266,0,U,32767,999,6646,0,-.316E-5,0
STAR ONE C2,2008-018B,2026-06-04T04:06:38.846016,1.00270253,.0002972,1.2077,82.5803,357.0643,169.6466,0,U,32768,999,6652,0,-.265E-5,0
AMOS-3,2008-022A,2026-06-04T03:26:05.096256,1.00469953,.0001847,0.4214,86.4460,55.6328,191.4824,0,U,32794,999,8220,0,.168E-5,0
GALAXY 18 (G-18),2008-024A,2026-06-04T04:23:38.772096,1.00271630,.0003307,0.0151,14.2058,68.1404,113.1911,0,U,32951,999,4572,0,.37E-6,0
ZHONGXING-9,2008-028A,2026-06-04T04:27:21.708288,1.00270177,.00049,0.7360,85.5257,328.2263,358.1036,0,U,33051,999,6590,0,-.237E-5,0
SKYNET 5C,2008-030A,2026-06-04T03:12:36.387936,1.00271351,.0004291,3.7554,77.1939,5.0441,200.7260,0,U,33055,999,6582,0,-.129E-5,0
TURKSAT 3A,2008-030B,2026-06-04T03:29:42.247968,1.00271326,.0005486,0.0664,83.8256,340.5006,282.6779,0,U,33056,999,5222,0,.158E-5,0
INTELSAT 25 (IS-25),2008-034A,2026-06-04T02:26:26.600064,0.99026875,.0002222,2.6745,80.4584,56.5708,332.2960,0,U,33153,999,6556,0,-.147E-5,0
ECHOSTAR 11,2008-035A,2026-06-04T02:46:24.683808,1.00271928,.0002684,0.9710,84.3282,333.7067,126.3391,0,U,33207,999,5108,0,-.46E-6,0
SUPERBIRD-C2,2008-038A,2026-06-04T03:56:32.177184,1.00270296,.0006162,2.3272,81.4221,20.8450,345.4684,0,U,33274,999,10560,0,-.295E-5,0
